norad_id,name,regime,epoch,line1,line2,inclination,eccentricity,mean_motion,raan,arg_pericenter,mean_anomaly
25049,SIRIUS 2 (GE-1E),GEO,15038.43410670,1 25049U 97071A   15038.43410670  .00000064  00000-0  00000+0 0  6903\,2 25049 005.1113 060.9311 0001389 284.6944 158.3879 00.99404289 62971,5.1113,0.0001389,0.99404289,60.9311,284.6944,158.3879
25049,SIRIUS 2 (GE-1E),GEO,15042.35065333,1 25049U 97071A   15042.35065333  .00000010  00000-0  00000+0 0  6913\,2 25049 005.1188 060.8981 0001504 289.7620 114.9470 00.99406100 63016,5.1188,0.0001504,0.994061,60.8981,289.762,114.947
25049,SIRIUS 2 (GE-1E),GEO,15045.33942804,1 25049U 97071A   15045.33942804 -.00000055  00000-0  00000+0 0  6922\,2 25049 005.1244 060.8722 0001616 294.3075 100.0199 00.99407360 63048,5.1244,0.0001616,0.9940736,60.8722,294.3075,100.0199
25049,SIRIUS 2 (GE-1E),GEO,15047.62497774,1 25049U 97071A   15047.62497774 -.00000113  00000-0  00000+0 0  6933\,2 25049 005.1287 060.8521 0001703 298.5201 193.7652 00.99408155 63064,5.1287,0.0001703,0.99408155,60.8521,298.5201,193.7652
25049,SIRIUS 2 (GE-1E),GEO,15050.27369796,1 25049U 97071A   15050.27369796  .00000000  00000-0  10000-3 0  6951\,2 25049 005.1335 060.8290 0001643 308.8694 051.3512 00.99404270 63096,5.1335,0.0001643,0.9940427,60.829,308.8694,51.3512
25049,SIRIUS 2 (GE-1E),GEO,15050.81878984,1 25049U 97071A   15050.81878984 -.00000194  00000-0  00000+0 0  6966\,2 25049 005.1346 060.8240 0001848 305.5341 249.7714 00.99408948 63096,5.1346,0.0001848,0.99408948,60.824,305.5341,249.7714
25049,SIRIUS 2 (GE-1E),GEO,15053.62413839,1 25049U 97071A   15053.62413839 -.00000258  00000-0  00000+0 0  6974\,2 25049 005.1399 060.7998 0001946 310.6607 168.6443 00.99409224 63124,5.1399,0.0001946,0.99409224,60.7998,310.6607,168.6443
25049,SIRIUS 2 (GE-1E),GEO,15055.64669237,1 25049U 97071A   15055.64669237 -.00000296  00000-0  00000+0 0  6986\,2 25049 005.1436 060.7826 0002008 314.1401 169.0106 00.99409120 63145,5.1436,0.0002008,0.9940912,60.7826,314.1401,169.0106
25049,SIRIUS 2 (GE-1E),GEO,15058.80746465,1 25049U 97071A   15058.80746465 -.00000334  00000-0  00000+0 0  6990\,2 25049 005.1496 060.7553 0002072 318.2439 216.1033 00.99408524 63178,5.1496,0.0002072,0.99408524,60.7553,318.2439,216.1033
25049,SIRIUS 2 (GE-1E),GEO,15060.82664503,1 25049U 97071A   15060.82664503 -.00000343  00000-0  00000+0 0  7000\,2 25049 005.1535 060.7374 0002097 320.2746 216.7045 00.99407874 63192,5.1535,0.0002097,0.99407874,60.7374,320.2746,216.7045
25049,SIRIUS 2 (GE-1E),GEO,15062.84281485,1 25049U 97071A   15062.84281485 -.00000338  00000-0  00000+0 0  7013\,2 25049 005.1574 060.7200 0002140 322.4345 216.0923 00.99407033 63219,5.1574,0.000214,0.99407033,60.72,322.4345,216.0923
25049,SIRIUS 2 (GE-1E),GEO,15065.89551535,1 25049U 97071A   15065.89551535 -.00000307  00000-0  00000+0 0  7024\,2 25049 005.1633 060.6937 0002213 325.2150 225.8024 00.99405570 63244,5.1633,0.0002213,0.9940557,60.6937,325.215,225.8024
25049,SIRIUS 2 (GE-1E),GEO,15068.76925795,1 25049U 97071A   15068.76925795 -.00000260  00000-0  00000+0 0  7035\,2 25049 005.1689 060.6694 0002309 327.8440 171.6015 00.99404034 63276,5.1689,0.0002309,0.99404034,60.6694,327.844,171.6015
25049,SIRIUS 2 (GE-1E),GEO,15071.39792479,1 25049U 97071A   15071.39792479  .00000000  00000-0  10000-3 0  7057\,2 25049 005.1728 060.6438 0002786 334.9452 025.2330 00.99399414 63300,5.1728,0.0002786,0.99399414,60.6438,334.9452,25.233
25049,SIRIUS 2 (GE-1E),GEO,15071.58400024,1 25049U 97071A   15071.58400024 -.00000202  00000-0  00000+0 0  7061\,2 25049 005.1742 060.6453 0002404 329.8054 096.9435 00.99402669 63309,5.1742,0.0002404,0.99402669,60.6453,329.8054,96.9435
25049,SIRIUS 2 (GE-1E),GEO,15073.59322539,1 25049U 97071A   15073.59322539 -.00000157  00000-0  00000+0 0  7078\,2 25049 005.1780 060.6276 0002494 331.6228 094.1515 00.99401741 63328,5.178,0.0002494,0.99401741,60.6276,331.6228,94.1515
25049,SIRIUS 2 (GE-1E),GEO,15076.56442062,1 25049U 97071A   15076.56442062 -.00000088  00000-0  00000+0 0  7086\,2 25049 005.1837 060.6017 0002636 334.5852 074.4581 00.99400663 63356,5.1837,0.0002636,0.99400663,60.6017,334.5852,74.4581
25049,SIRIUS 2 (GE-1E),GEO,15078.79546238,1 25049U 97071A   15078.79546238 -.00000038  00000-0  00000+0 0  7099\,2 25049 005.1878 060.5826 0002728 336.9083 150.5269 00.99400132 63374,5.1878,0.0002728,0.99400132,60.5826,336.9083,150.5269
25049,SIRIUS 2 (GE-1E),GEO,15081.82841503,1 25049U 97071A   15081.82841503  .00000021  00000-0  00000+0 0  7103\,2 25049 005.1935 060.5569 0002861 340.5885 152.2014 00.99399829 63402,5.1935,0.0002861,0.99399829,60.5569,340.5885,152.2014
25049,SIRIUS 2 (GE-1E),GEO,15084.01308109,1 25049U 97071A   15084.01308109  .00000054  00000-0  00000+0 0  7114\,2 25049 005.1977 060.5387 0002933 343.0086 211.5755 00.99400026 63422,5.1977,0.0002933,0.99400026,60.5387,343.0086,211.5755
25049,SIRIUS 2 (GE-1E),GEO,15086.48766495,1 25049U 97071A   15086.48766495  .00000000  00000-0  10000-3 0  7131\,2 25049 005.2032 060.5169 0002830 338.9364 021.1763 00.99397279 63453,5.2032,0.000283,0.99397279,60.5169,338.9364,21.1763
25049,SIRIUS 2 (GE-1E),GEO,15086.81108924,1 25049U 97071A   15086.81108924  .00000081  00000-0  00000+0 0  7140\,2 25049 005.2029 060.5152 0002979 345.5641 130.2991 00.99400522 63458,5.2029,0.0002979,0.99400522,60.5152,345.5641,130.2991
25049,SIRIUS 2 (GE-1E),GEO,15088.86967301,1 25049U 97071A   15088.86967301  .00000090  00000-0  00000+0 0  7150\,2 25049 005.2069 060.4980 0003008 347.0461 145.4959 00.99401179 63474,5.2069,0.0003008,0.99401179,60.498,347.0461,145.4959
25049,SIRIUS 2 (GE-1E),GEO,15090.98535069,1 25049U 97071A   15090.98535069  .00000090  00000-0  00000+0 0  7169\,2 25049 005.2110 060.4804 0003037 348.6017 181.0557 00.99402018 63497,5.211,0.0003037,0.99402018,60.4804,348.6017,181.0557
25049,SIRIUS 2 (GE-1E),GEO,15093.01236279,1 25049U 97071A   15093.01236279  .00000078  00000-0  00000+0 0  7174\,2 25049 005.2150 060.4637 0003065 349.9344 185.1157 00.99402959 63511,5.215,0.0003065,0.99402959,60.4637,349.9344,185.1157
25049,SIRIUS 2 (GE-1E),GEO,15095.09681861,1 25049U 97071A   15095.09681861  .00000055  00000-0  00000+0 0  7181\,2 25049 005.2190 060.4468 0003105 351.2950 209.7100 00.99403949 63534,5.219,0.0003105,0.99403949,60.4468,351.295,209.71
25049,SIRIUS 2 (GE-1E),GEO,15097.55310693,1 25049U 97071A   15097.55310693  .00000000  00000-0  10000-3 0  7204\,2 25049 005.2231 060.4211 0003738 354.7325 005.3188 00.99402198 63566,5.2231,0.0003738,0.99402198,60.4211,354.7325,5.3188
25049,SIRIUS 2 (GE-1E),GEO,15097.83367035,1 25049U 97071A   15097.83367035  .00000010  00000-0  00000+0 0  7214\,2 25049 005.2243 060.4247 0003190 353.0917 107.3523 00.99405306 63569,5.2243,0.000319,0.99405306,60.4247,353.0917,107.3523
25049,SIRIUS 2 (GE-1E),GEO,15098.55902247,1 25049U 97071A   15098.55902247  .00000000  00000-0  10000-3 0  7229\,2 25049 005.2251 060.4137 0003793 356.8399 003.2012 00.99402527 63570,5.2251,0.0003793,0.99402527,60.4137,356.8399,3.2012
25049,SIRIUS 2 (GE-1E),GEO,15099.56494339,1 25049U 97071A   15099.56494339  .00000000  00000-0  10000-3 0  7241\,2 25049 005.2270 060.4066 0003738 357.0282 003.0071 00.99402877 63587,5.227,0.0003738,0.99402877,60.4066,357.0282,3.0071
25049,SIRIUS 2 (GE-1E),GEO,15100.06102198,1 25049U 97071A   15100.06102198 -.00000035  00000-0  00000+0 0  7253\,2 25049 005.2286 060.4063 0003254 354.4955 183.0632 00.99406342 63585,5.2286,0.0003254,0.99406342,60.4063,354.4955,183.0632
25049,SIRIUS 2 (GE-1E),GEO,15102.18149248,1 25049U 97071A   15102.18149248 -.00000083  00000-0  00000+0 0  7269\,2 25049 005.2326 060.3884 0003344 356.0426 220.3841 00.99407087 63608,5.2326,0.0003344,0.99407087,60.3884,356.0426,220.3841
25049,SIRIUS 2 (GE-1E),GEO,15106.01682390,1 25049U 97071A   15106.01682390 -.00000165  00000-0  00000+0 0  7277\,2 25049 005.2398 060.3571 0003528 359.1538 149.8680 00.99408087 63643,5.2398,0.0003528,0.99408087,60.3571,359.1538,149.868
25049,SIRIUS 2 (GE-1E),GEO,15108.13132894,1 25049U 97071A   15108.13132894 -.00000204  00000-0  00000+0 0  7286\,2 25049 005.2437 060.3400 0003627 001.1598 184.6097 00.99408354 63666,5.2437,0.0003627,0.99408354,60.34,1.1598,184.6097
25049,SIRIUS 2 (GE-1E),GEO,15110.34844999,1 25049U 97071A   15110.34844999 -.00000238  00000-0  00000+0 0  7296\,2 25049 005.2479 060.3224 0003703 003.0478 256.1931 00.99408357 63686,5.2479,0.0003703,0.99408357,60.3224,3.0478,256.1931
25049,SIRIUS 2 (GE-1E),GEO,15113.07929429,1 25049U 97071A   15113.07929429 -.00000267  00000-0  00000+0 0  7305\,2 25049 005.2530 060.3007 0003778 005.5865 150.9791 00.99408098 63713,5.253,0.0003778,0.99408098,60.3007,5.5865,150.9791
25049,SIRIUS 2 (GE-1E),GEO,15116.06713012,1 25049U 97071A   15116.06713012 -.00000278  00000-0  00000+0 0  7319\,2 25049 005.2586 060.2768 0003845 008.4821 137.3731 00.99407410 63749,5.2586,0.0003845,0.9940741,60.2768,8.4821,137.3731
25049,SIRIUS 2 (GE-1E),GEO,15119.05502669,1 25049U 97071A   15119.05502669 -.00000270  00000-0  00000+0 0  7328\,2 25049 005.2643 060.2533 0003879 010.6937 124.4649 00.99406492 63770,5.2643,0.0003879,0.99406492,60.2533,10.6937,124.4649
25049,SIRIUS 2 (GE-1E),GEO,15121.30100344,1 25049U 97071A   15121.30100344 -.00000255  00000-0  00000+0 0  7337\,2 25049 005.2686 060.2359 0003911 012.3776 206.5597 00.99405693 63798,5.2686,0.0003911,0.99405693,60.2359,12.3776,206.5597
25049,SIRIUS 2 (GE-1E),GEO,15124.27385303,1 25049U 97071A   15124.27385303 -.00000226  00000-0  00000+0 0  7345\,2 25049 005.2742 060.2129 0003971 014.4591 188.3755 00.99404559 63827,5.2742,0.0003971,0.99404559,60.2129,14.4591,188.3755
25049,SIRIUS 2 (GE-1E),GEO,15127.10265479,1 25049U 97071A   15127.10265479 -.00000193  00000-0  00000+0 0  7355\,2 25049 005.2795 060.1910 0004038 016.1787 118.9932 00.99403530 63850,5.2795,0.0004038,0.9940353,60.191,16.1787,118.9932
